NOAA 1 [-]              
1 04793U 70106A   23095.15235932 -.00000024  00000+0  12143-3 0  9996
2 04793 101.5104 156.1289 0032119 114.3267 302.0700 12.54013717394154
NOAA 2 (ITOS-D) [-]     
1 06235U 72082A   23095.58106132 -.00000033  00000+0  81839-4 0  9999
2 06235 101.9888  85.0047 0003712 234.1224 239.6169 12.53160140308569
NOAA 3 [-]              
1 06920U 73086A   23095.61271248 -.00000038  00000+0  57341-4 0  9996
2 06920 102.2444  83.3925 0006845 111.1702   2.1877 12.40355250237017
NOAA 4 [-]              
1 07529U 74089A   23095.55843927 -.00000031  00000+0  93335-4 0  9994
2 07529 101.9522  81.4561 0008584 265.6868 207.2438 12.53167549213135
NOAA 5 [-]              
1 09057U 76077A   23095.50395042 -.00000040  00000+0  43020-4 0  9992
2 09057 102.1467  65.8649 0009642 323.3424 147.4579 12.37782580109879
TIROS N [-]             
1 11060U 78096A   23095.59266734  .00000320  00000+0  17534-3 0  9996
2 11060  98.5921 145.9722 0010909  28.4281 331.7488 14.18532917513024
NOAA 6 [-]              
1 11416U 79057A   23095.58158381  .00000508  00000+0  19775-3 0  9993
2 11416  98.6568 111.8122 0011438 114.2535 245.9846 14.33996062283386
NOAA 7 [-]              
1 12553U 81059A   23095.55699496  .00000107  00000+0  75109-4 0  9994
2 12553  98.9553 147.9695 0011544  10.2781 349.8627 14.17396812159176
NOAA 8 [-]              
1 13923U 83022A   23095.57349612  .00000307  00000+0  13898-3 0  9990
2 13923  98.7115  90.3496 0016236  76.5624 283.7366 14.28950538 84125
NOAA 9 [-]              
1 15427U 84123A   23095.59144029  .00000273  00000+0  16065-3 0  9992
2 15427  99.0854  78.1550 0015783  59.7680  49.9657 14.16331008977966
NOAA 10 [-]             
1 16969U 86073A   23095.59456203  .00000265  00000+0  12335-3 0  9997
2 16969  98.6007  81.8457 0012259 171.0777 301.8210 14.28333966902534
NOAA 11 [-]             
1 19531U 88089A   23095.52305078  .00000132  00000+0  88788-4 0  9999
2 19531  98.4600  74.0422 0012197  60.2863 299.9524 14.15382023782132
NOAA 12 [-]             
1 21263U 91032A   23095.58777415  .00000197  00000+0  10019-3 0  9992
2 21263  98.5313  92.4451 0013168 199.9279 160.1389 14.26096276658364
NOAA 13 [-]             
1 22739U 93050A   23095.49567902  .00000284  00000+0  17492-3 0  9990
2 22739  98.5463  66.3225 0008590 223.1153 136.9348 14.12963247528292
NOAA 14 [-]             
1 23455U 94089A   23095.61186527  .00000097  00000+0  71904-4 0  9994
2 23455  98.4308 111.2151 0009076 197.3786 162.7078 14.14259528458007
NOAA 15 [B]             
1 25338U 98030A   23095.55073550  .00000279  00000+0  13432-3 0  9993
2 25338  98.6142 125.8241 0010878 160.2184 199.9420 14.26284074294650
NOAA 16 [-]             
1 26536U 00055A   23095.56030307  .00000154  00000+0  10442-3 0  9998
2 26536  98.5923 148.7588 0011370  55.6663 304.5585 14.13411926458610
NOAA 17 [-]             
1 27453U 02032A   23095.63311004  .00000316  00000+0  15281-3 0  9994
2 27453  98.7095  43.0312 0012492 138.0777 222.1361 14.25267740 80480
NOAA 18 [B]             
1 28654U 05018A   23095.55242479  .00000312  00000+0  19149-3 0  9998
2 28654  98.9132 170.2863 0013704 221.9023 138.1101 14.12904967921224
NOAA 19 [+]             
1 33591U 09005A   23095.58788110  .00000264  00000+0  16721-3 0  9993
2 33591  99.1090 140.3266 0014869  88.1979 272.0894 14.12725655729438
SUOMI NPP [+]           
1 37849U 11061A   23095.58019928  .00000171  00000+0  10188-3 0  9990
2 37849  98.7637  35.5019 0001350  99.7809   5.3691 14.19535161592643
NOAA 20 [+]             
1 43013U 17073A   23095.59367147  .00000158  00000+0  95780-4 0  9996
2 43013  98.7474  34.9926 0000882  62.9543 297.1723 14.19533558278677
NOAA 21 (JPSS-2) [+]    
1 54234U 22150A   23095.61035912  .00000174  00000+0  10307-3 0  9999
2 54234  98.7113  34.7187 0001012  82.2589 277.8702 14.19574550 20755
